NIMIQ 4                 
1 33373U 08044A   26169.80724398  .00000000  00000+0  00000+0 0  9998
2 33373   0.0371  51.4729 0002068  36.3786  27.8327  1.00267328 65008
GALAXY 19 (G-19)        
1 33376U 08045A   26169.66183103 -.00000145  00000+0  00000+0 0  9990
2 33376   0.0324 263.5653 0002518 188.5280 316.0666  1.00271177 64915
ASTRA 1M                
1 33436U 08057A   26169.84625801  .00000114  00000+0  00000+0 0  9991
2 33436   0.3017  82.4777 0004803  25.4854 123.1314  1.00272543 45750
EUTELSAT HOTBIRD 13C    
1 33459U 08065A   26169.81365735 -.00000290  00000+0  00000+0 0  9995
2 33459   2.9554  79.1731 0003376   7.8980  62.5927  1.00270363 47363
EXPRESS-AM44            
1 33595U 09007A   26169.82142853 -.00000097  00000+0  00000+0 0  9993
2 33595   3.4685  78.3700 0003810   2.2069 111.1792  1.00271027 52301
NSS-9                   
1 33749U 09008A   26169.78852390  .00000065  00000+0  00000+0 0  9998
2 33749   1.2669  82.6395 0002013 346.1525 305.1571  1.00270746 63533
TELSTAR 11N             
1 34111U 09009A   26169.81617068 -.00000257  00000+0  00000+0 0  9992
2 34111   0.0250  67.6895 0002244  22.3881  73.2234  1.00270110 46267
WGS F2 (USA 204)        
1 34713U 09017A   26169.77120793  .00000061  00000+0  00000+0 0  9990
2 34713   0.0177  13.7071 0000212 261.7842 326.6526  1.00272190 45639
SES-7 (PROTOSTAR 2)     
1 34941U 09027A   26169.81415477 -.00000350  00000+0  00000+0 0  9997
2 34941   0.0423  69.2602 0000426 189.2621  49.8578  1.00259922 62647
MEASAT-3A               
1 35362U 09032A   26169.62197516 -.00000117  00000+0  00000+0 0  9992
2 35362   0.0217 359.3171 0002911  81.0030 210.4589  1.00271777  8048
GOES 14                 
1 35491U 09033A   26169.78020387 -.00000304  00000+0  00000+0 0  9992
2 35491   1.6951  83.0232 0001833  12.4130 233.3583  1.00110421  6609
FM-5                    
1 35493U 09034A   26169.80646397 -.00000206  00000+0  00000+0 0  9994
2 35493   0.0179 295.9022 0000944  19.5019 155.7986  1.00271588 46669
TERRESTAR-1             
1 35496U 09035A   26169.65879770 -.00000065  00000+0  00000+0 0  9997
2 35496   5.1763  48.8007 0002626  31.4792 312.7675  1.00272073 62146
ASIASAT 5               
1 35696U 09042A   26169.84351611  .00000000  00000+0  00000+0 0  9995
2 35696   0.0288  47.1310 0001591  39.5282 224.6469  1.00266446 61728
JCSAT-12 (JCSAT-RA)     
1 35755U 09044A   26169.83288491 -.00000334  00000+0  00000+0 0  9998
2 35755   0.0087  17.5714 0000237 285.2239  36.1485  1.00270494 61629
OPTUS D3                
1 35756U 09044B   26169.64068426 -.00000152  00000+0  00000+0 0  9990
2 35756   0.8729 268.9316 0002743 180.3950 204.3323  1.00270123 61584
NIMIQ 5                 
1 35873U 09050A   26169.80923733 -.00000263  00000+0  00000+0 0  9999
2 35873   0.0119 338.4034 0002756 106.9273  40.3295  1.00269809 61366
AMAZONAS 2              
1 35942U 09054A   26169.80932398 -.00000266  00000+0  00000+0 0  9990
2 35942   1.8207  83.0289 0003137   5.8755  37.4950  1.00272826 61202
COMSATBW-1              
1 35943U 09054B   26169.47959942  .00000017  00000+0  00000+0 0  9991
2 35943   0.0550 162.5729 0002674 293.6151  46.2520  1.00276711 61320
NSS-12                  
1 36032U 09058A   26169.77120838  .00000065  00000+0  00000+0 0  9995
2 36032   0.0296 309.5701 0004878 107.9778 184.0817  1.00270607 60934
THOR 6                  
1 36033U 09058B   26169.82340024 -.00000016  00000+0  00000+0 0  9990
2 36033   0.0221  94.9095 0001612 348.7990 118.9279  1.00271407 61026
INTELSAT 14 (IS-14)     
1 36097U 09064A   26169.81469735 -.00000280  00000+0  00000+0 0  9990
2 36097   0.0112 313.3595 0002312 132.8489  69.1362  1.00271936 60623
EUTELSAT 36B            
1 36101U 09065A   26169.83362696  .00000106  00000+0  00000+0 0  9993
2 36101   0.4960  81.1188 0005469   4.5777 171.9813  1.00268730 60725
INTELSAT 15 (IS-15)     
1 36106U 09067A   26169.84048277 -.00000191  00000+0  00000+0 0  9992
2 36106   0.0165 338.5876 0002121 109.1900 207.0134  1.00272268 41242
WGS F3 (USA 211)        
1 36108U 09068A   26169.65524433  .00000058  00000+0  00000+0 0  9998
2 36108   0.3242  85.6919 0000258 251.5107  35.5777  1.00270012 46608
DIRECTV 12              
1 36131U 09075A   26169.66070436 -.00000110  00000+0  00000+0 0  9992
2 36131   0.0434 170.9001 0000385 299.0990 292.0273  1.00272181 46567
BEIDOU-2 G1             
1 36287U 10001A   26169.68054953 -.00000288  00000+0  00000+0 0  9999
2 36287   4.2972  60.4043 0002220 296.1025 295.8681  1.00269716 60186
SDO                     
1 36395U 10005A   26168.41002763 -.00000096  00000+0  00000+0 0  9992
2 36395  34.6527  86.3378 0001734  44.0102 180.8312  1.00269958 60061
INTELSAT 16 (IS-16)     
1 36397U 10006A   26169.52329987 -.00000251  00000+0  00000+0 0  9991
2 36397   0.0106 326.8305 0001928 134.2807 277.8288  1.00272434 59660
EWS-G2 (GOES 15)        
1 36411U 10008A   26169.81066573  .00000013  00000+0  00000+0 0  9996
2 36411   1.2830  82.8209 0004846  42.1667 137.5820  1.00266365 59658
ECHOSTAR 14             
1 36499U 10010A   26169.65749769 -.00000006  00000+0  00000+0 0  9995
2 36499   0.0489  84.8839 0002364  15.9754 283.8424  1.00269896 46563
SES-1                   
1 36516U 10016A   26169.66105103 -.00000121  00000+0  00000+0 0  9998
2 36516   0.0316 297.5153 0002623 146.0025 320.3535  1.00270925 59041
