OBJECT_NAME,OBJECT_ID,EPOCH,MEAN_MOTION,ECCENTRICITY,INCLINATION,RA_OF_ASC_NODE,ARG_OF_PERICENTER,MEAN_ANOMALY,EPHEMERIS_TYPE,CLASSIFICATION_TYPE,NORAD_CAT_ID,ELEMENT_SET_NO,REV_AT_EPOCH,BSTAR,MEAN_MOTION_DOT,MEAN_MOTION_DDOT
NIMIQ 4,2008-044A,2026-06-18T19:22:25.879872,1.00267328,.0002068,0.0371,51.4729,36.3786,27.8327,0,U,33373,999,6500,0,0,0
GALAXY 19 (G-19),2008-045A,2026-06-18T15:53:02.200992,1.00271177,.0002518,0.0324,263.5653,188.5280,316.0666,0,U,33376,999,6491,0,-.145E-5,0
ASTRA 1M,2008-057A,2026-06-18T20:18:36.692064,1.00272543,.0004803,0.3017,82.4777,25.4854,123.1314,0,U,33436,999,4575,0,.114E-5,0
EUTELSAT HOTBIRD 13C,2008-065A,2026-06-18T19:31:39.995040,1.00270363,.0003376,2.9554,79.1731,7.8980,62.5927,0,U,33459,999,4736,0,-.29E-5,0
EXPRESS-AM44,2009-007A,2026-06-18T19:42:51.424992,1.00271027,.000381,3.4685,78.3700,2.2069,111.1792,0,U,33595,999,5230,0,-.97E-6,0
NSS-9,2009-008A,2026-06-18T18:55:28.464960,1.00270746,.0002013,1.2669,82.6395,346.1525,305.1571,0,U,33749,999,6353,0,.65E-6,0
TELSTAR 11N,2009-009A,2026-06-18T19:35:17.146752,1.00270110,.0002244,0.0250,67.6895,22.3881,73.2234,0,U,34111,999,4626,0,-.257E-5,0
WGS F2 (USA 204),2009-017A,2026-06-18T18:30:32.365152,1.00272190,.0000212,0.0177,13.7071,261.7842,326.6526,0,U,34713,999,4563,0,.61E-6,0
SES-7 (PROTOSTAR 2),2009-027A,2026-06-18T19:32:22.972128,1.00259922,.0000426,0.0423,69.2602,189.2621,49.8578,0,U,34941,999,6264,0,-.35E-5,0
MEASAT-3A,2009-032A,2026-06-18T14:55:38.653824,1.00271777,.0002911,0.0217,359.3171,81.0030,210.4589,0,U,35362,999,804,0,-.117E-5,0
GOES 14,2009-033A,2026-06-18T18:43:29.614368,1.00110421,.0001833,1.6951,83.0232,12.4130,233.3583,0,U,35491,999,660,0,-.304E-5,0
FM-5,2009-034A,2026-06-18T19:21:18.487008,1.00271588,.0000944,0.0179,295.9022,19.5019,155.7986,0,U,35493,999,4666,0,-.206E-5,0
TERRESTAR-1,2009-035A,2026-06-18T15:48:40.121280,1.00272073,.0002626,5.1763,48.8007,31.4792,312.7675,0,U,35496,999,6214,0,-.65E-6,0
ASIASAT 5,2009-042A,2026-06-18T20:14:39.791904,1.00266446,.0001591,0.0288,47.1310,39.5282,224.6469,0,U,35696,999,6172,0,0,0
JCSAT-12 (JCSAT-RA),2009-044A,2026-06-18T19:59:21.256224,1.00270494,.0000237,0.0087,17.5714,285.2239,36.1485,0,U,35755,999,6162,0,-.334E-5,0
OPTUS D3,2009-044B,2026-06-18T15:22:35.120064,1.00270123,.0002743,0.8729,268.9316,180.3950,204.3323,0,U,35756,999,6158,0,-.152E-5,0
NIMIQ 5,2009-050A,2026-06-18T19:25:18.105312,1.00269809,.0002756,0.0119,338.4034,106.9273,40.3295,0,U,35873,999,6136,0,-.263E-5,0
AMAZONAS 2,2009-054A,2026-06-18T19:25:25.591872,1.00272826,.0003137,1.8207,83.0289,5.8755,37.4950,0,U,35942,999,6120,0,-.266E-5,0
COMSATBW-1,2009-054B,2026-06-18T11:30:37.389888,1.00276711,.0002674,0.0550,162.5729,293.6151,46.2520,0,U,35943,999,6132,0,.17E-6,0
NSS-12,2009-058A,2026-06-18T18:30:32.404032,1.00270607,.0004878,0.0296,309.5701,107.9778,184.0817,0,U,36032,999,6093,0,.65E-6,0
THOR 6,2009-058B,2026-06-18T19:45:41.780736,1.00271407,.0001612,0.0221,94.9095,348.7990,118.9279,0,U,36033,999,6102,0,-.16E-6,0
INTELSAT 14 (IS-14),2009-064A,2026-06-18T19:33:09.851040,1.00271936,.0002312,0.0112,313.3595,132.8489,69.1362,0,U,36097,999,6062,0,-.28E-5,0
EUTELSAT 36B,2009-065A,2026-06-18T20:00:25.369344,1.00268730,.0005469,0.4960,81.1188,4.5777,171.9813,0,U,36101,999,6072,0,.106E-5,0
INTELSAT 15 (IS-15),2009-067A,2026-06-18T20:10:17.711328,1.00272268,.0002121,0.0165,338.5876,109.1900,207.0134,0,U,36106,999,4124,0,-.191E-5,0
WGS F3 (USA 211),2009-068A,2026-06-18T15:43:33.110112,1.00270012,.0000258,0.3242,85.6919,251.5107,35.5777,0,U,36108,999,4660,0,.58E-6,0
DIRECTV 12,2009-075A,2026-06-18T15:51:24.856704,1.00272181,.0000385,0.0434,170.9001,299.0990,292.0273,0,U,36131,999,4656,0,-.11E-5,0
BEIDOU-2 G1,2010-001A,2026-06-18T16:19:59.479392,1.00269716,.000222,4.2972,60.4043,296.1025,295.8681,0,U,36287,999,6018,0,-.288E-5,0
SDO,2010-005A,2026-06-17T09:50:26.387232,1.00269958,.00017341,34.6527,86.3378,44.0102,180.8312,0,U,36395,999,6006,0,-.96E-6,0
INTELSAT 16 (IS-16),2010-006A,2026-06-18T12:33:33.108768,1.00272434,.0001928,0.0106,326.8305,134.2807,277.8288,0,U,36397,999,5966,0,-.251E-5,0
EWS-G2 (GOES 15),2010-008A,2026-06-18T19:27:21.519072,1.00266365,.0004846,1.2830,82.8209,42.1667,137.5820,0,U,36411,999,5965,0,.13E-6,0
ECHOSTAR 14,2010-010A,2026-06-18T15:46:47.800416,1.00269896,.0002364,0.0489,84.8839,15.9754,283.8424,0,U,36499,999,4656,0,-.6E-7,0
SES-1,2010-016A,2026-06-18T15:51:54.808992,1.00270925,.0002623,0.0316,297.5153,146.0025,320.3535,0,U,36516,999,5904,0,-.121E-5,0
